#cP2021  7 19  0  0  0.00000000     192 ORBIT IGb14 HLM  IGS
## 2167  86400.00000000   900.00000000 59414 0.0000000000000
+   32   G01G02G03G04G05G06G07G08G09G10G11G12G13G14G15G16G17
+        G18G19G20G21G22G23G24G25G26G27G28G29G30G31G32  0  0
+          0  0  0  0  0  0  0  0  0  0  0  0  0  0  0  0  0
+          0  0  0  0  0  0  0  0  0  0  0  0  0  0  0  0  0
+          0  0  0  0  0  0  0  0  0  0  0  0  0  0  0  0  0
++         1  2  2  2  2  2  1  2  1  3  2  2  2  2  1  2  2
++         2  2  2  2  2  2  2  2  2  2  2  2  2  1  1  0  0
++         0  0  0  0  0  0  0  0  0  0  0  0  0  0  0  0  0
++         0  0  0  0  0  0  0  0  0  0  0  0  0  0  0  0  0
++         0  0  0  0  0  0  0  0  0  0  0  0  0  0  0  0  0
%c G  cc GPS ccc cccc cccc cccc cccc ccccc ccccc ccccc ccccc
%c cc cc ccc ccc cccc cccc cccc cccc ccccc ccccc ccccc ccccc
%f  1.2500000  1.025000000  0.00000000000  0.000000000000000
%f  0.0000000  0.000000000  0.00000000000  0.000000000000000
%i    0    0    0    0      0      0      0      0         0
%i    0    0    0    0      0      0      0      0         0
/* CATSP3C joined: igs21671.sp3 igs21672.sp3                
/* cod emr esa gfz grg jpl mit ngs sio                      
/* REFERENCED TO IGS TIME (IGST) AND TO WEIGHTED MEAN POLE: 
/* PCV:IGS14_2163 OL/AL:FES2004  NONE     Y  ORB:CMB CLK:CMB
*  2021  7 19  7 30  0.00000000
PG01  -6587.222373 -13825.760384 -22010.006145    623.779600  4  2  4  65
PG02 -17629.161329  14342.098680  14450.679074   -620.599294  4  4  2  67
PG03 -10725.654359 -22836.176217  -8571.781222   -225.192819  7  4  8 120
PG04  -1937.928120 -21871.166301  14909.191160   -202.646603  3  6  5  67
PG05    785.136135  19764.551845  17482.021313    -48.377010  1  7  6 111
PG06 -25259.792906   6913.401638   4666.733207     42.272415  2  2  3  88
PG07 -20767.119093  -7988.532655  15230.503603    205.768008  5  3  5  88
PG08   5284.793145 -25267.097443  -5529.721193    -29.346866  4  6  6  66
PG09 -10907.707145 -12635.598305  20593.885960   -356.023634  1  4  5  87
PG10  19691.964250   6191.041520 -16750.046998   -164.990185  7  7  7  78
PG11 -19338.984416  11619.189353  13997.587819     18.962636  5  6  8  88
PG12   8623.255954  23555.707518  -9186.701037    -70.681049  5  5  4  67
PG13 -13144.410523  22978.355923    572.834690    159.626404  3  5  3  75
PG14 -19414.820261  -6181.588785 -17067.100204     43.886247  6  9  4  73
PG15  -1960.425876  25666.791392  -6118.554972   -134.516147  4  5  3 100
PG16   6516.078609 -15277.196075  20368.605525   -359.504530  6  6  6  72
PG17 -16191.309402   2386.902259 -20492.633242    476.035547  4  5  3  87
PG18  22406.313992   6074.345432  12961.538318    339.899829  6  6  3  87
PG19 -18018.693369  10842.449352 -16418.271950     28.225349  2  4  2  78
PG20  -9537.479386  12494.515813  21386.789756    520.092131  3  5  4  70
PG21   2032.553227 -15444.033165 -20743.224509    132.133701  7  2  5  62
PG22  -5369.688150 -21240.059673 -14974.597802   -559.940504  5  6  7  73
PG23  20146.986404  15513.615888  -7801.683364     82.581445  6  5  5  70
PG24   1775.736493  15855.636508 -21466.063987    179.554221  4  3  5  71
PG25  17147.174009  20447.569205    797.713391    176.062674  4  4  4  96
PG26  14770.188510  -6444.853642  21087.948571    112.329243  5  4  4  47
PG27  12191.880343 -22908.250051   4468.892512   -165.159090  6     5  76
PG28 -16792.455635   -777.766724 -19968.493891    535.285575  5  6  3  88
PG29   8231.549562  14539.105229  20581.205604   -382.547408  5  7  5  78
PG30 -26378.179002    299.784992   4119.292068   -452.476163  4  4  4  83
PG31  24913.376614  -7597.770974   6247.403757   -129.463630  2  4  5  92
PG32  16907.484987  -5843.964336 -19461.252331     13.244907  5  5  2  68
*  2021  7 19  7 45  0.00000000
PG01  -4157.291243 -14255.121139 -22301.248207    623.769240  4  3  3  73
PG02 -19052.906154  14534.036046  12173.432505   -620.601689  3  5  3  75
PG03  -9856.408371 -22117.436572 -11133.710948   -225.203291  7  4  9 118
PG04  -1173.175847 -23269.516685  12702.800535   -202.647278  3  6  5  76
PG05   -767.081690  18306.603425  19006.284262    -48.377496  2  6  5 111
PG06 -25648.752422   6800.221460   1799.689027     42.277428  2  2  3  72
PG07 -19045.879423  -8448.770496  17114.715234    205.775929  5  3  5  56
PG08   5678.172678 -25634.624427  -2695.528343    -29.347581  5  6  6  68
PG09 -10077.118541 -14795.783154  19553.233674   -356.024874  2  4  5  76
PG10  20761.183784   7660.061431 -14771.335851   -164.997040  7  7  7  91
PG11 -20826.431619  11594.401248  11697.613933     18.970203  4  6  8  65
PG12   7792.542051  22730.925363 -11714.944114    -70.685811  5  5  4  83
PG13 -13251.820178  22648.330987   3439.328628    159.631310  3  5  3 102
PG14 -20411.158025  -7741.798801 -15165.353488     43.878210  6  9  5  90
PG15  -2423.229671  26085.697890  -3378.247899   -134.513625  4  5  3 102
PG16   7995.885894 -13339.762976  21215.817771   -359.510164  6  7  6  92
PG17 -15281.770537     83.485318 -21297.066080    476.040398  5  5  3  74
PG18  20848.798218   6505.621262  15155.491705    339.897346  6  7  3  92
PG19 -17297.685705   9043.794488 -18227.363597     28.229801  2  4  2 101
PG20 -11383.365113  10868.726598  21348.495374    520.092201  3  5  4  54
PG21   4460.657490 -15975.585018 -19925.887011    132.136080  6  3  5  69
PG22  -3887.954064 -20114.219116 -16830.309341   -559.931855  4  5  7  68
PG23  20468.028721  16209.872641  -5068.062393     82.576748  6  6  4  84
PG24   -556.681159  16402.784656 -21077.758972    179.566700  4  3  5  66
PG25  16941.184025  20568.849086  -2040.865757    176.068682  4  4  3  91
PG26  16354.826939  -4657.264695  20404.035204    112.333481  5  4  5  73
PG27  12181.148101 -22171.291817   7268.711425   -165.164452  6     5  96
PG28 -18032.180589  -2744.969272 -18691.156211    535.279520  5  6  2  93
PG29   7235.173633  16603.923053  19354.916529   -382.552812  5  7  4  75
PG30 -25816.657960    -89.199133   6819.128781   -452.480139  4  5  5  81
PG31  25503.409302  -7459.434753   3501.367862   -129.465479  2  4  5  93
PG32  16254.407988  -3618.105804 -20538.331156     13.242955  5  5  2  78
*  2021  7 19  8  0  0.00000000
PG01  -1741.171841 -14825.042547 -22218.633821    623.758921  4  3  3  80
PG02 -20217.134413  14716.936388   9694.049221   -620.604022  3  5  3  41
PG03  -8756.943917 -21246.006451 -13505.981653   -225.213694  7  5  9  96
PG04   -563.109970 -24456.317750  10277.221831   -202.647947  4  7  5  66
PG05  -2502.516768  16822.322193  20197.521818    -48.378881  2  5  5 105
PG06 -25726.438112   6630.250709  -1098.203506     42.282399  3  3  3  69
PG07 -17162.220902  -9043.134248  18717.391847    205.783662  4  3  4  46
PG08   5967.349047 -25707.154536    185.934622    -29.349398  5  6  6  65
PG09  -9393.114179 -16862.814774  18174.216673   -356.026123  2  5  6  64
PG10  21741.635851   8896.040778 -12539.717652   -165.003919  7  7  7  93
PG11 -22045.707601  11597.413136   9196.130167     18.977760  4  6  8  84
PG12   6744.525194  21743.256904 -14045.457665    -70.690478  6  5  3  65
PG13 -13247.855141  22028.024819   6245.972896    159.635182  3  5  4  79
PG14 -21334.669657  -9076.052671 -13003.226681     43.870224  6 10  5  96
PG15  -2817.867772  26216.207012   -578.871749   -134.511068  3  5  3  97
PG16   9621.371078 -11427.255800  21687.318668   -359.515419  6  7  6  67
PG17 -14474.396284  -2333.899277 -21720.322940    476.045774  5  5  3  93
PG18  19088.209426   7071.160495  17089.313088    339.894830  6  7  4  91
PG19 -16607.972643   7038.026443 -19727.921994     28.234444  3  4  1  95
PG20 -13288.060724   9348.179771  20941.320854    520.091953  2  5  4  55
PG21   6750.007377 -16590.037364 -18739.984136    132.138049  6  4  5  81
PG22  -2204.102775 -18934.573624 -18394.848324   -559.923494  4  4  7  85
PG23  20601.716613  16667.786635  -2247.569547     82.572034  6  7  4  94
PG24  -2803.946650  17043.737388 -20332.982565    179.579273  4  3  6  70
PG25  16523.074908  20471.703131  -4844.985264    176.074683  4  4  3  95
PG26  17953.288000  -3018.668879  19369.058291    112.337651  5  4  5  94
PG27  12123.836374 -21132.685665   9939.981682   -165.169787  6     5  95
PG28 -19268.137159  -4511.549432 -17075.540774    535.273442  5  6  2 106
PG29   6409.598378  18572.149623  17793.595023   -382.558344  5  7  4  70
PG30 -24985.440733   -568.590504   9403.455580   -452.484084  4  5  5  63
PG31  25795.903974  -7286.072624    696.665555   -129.467415  3  4  5  86
PG32  15688.404349  -1264.503142 -21257.214666     13.241007  5  5  2  61
EOF
